{"type": "FeatureCollection", "features": [ {"type": "Feature", "properties": {"norad_id": 31772, "name": "FENGYUN 1C DEB", "group": "fengyun-1c-debris", "lat": -43.905353948929786, "lon": 73.15131318541958, "alt_km": 879.6719808384923, "timestamp": "2025-12-09T18:55:17.516152+00:00", "meta": {"OBJECT_NAME": "FENGYUN 1C DEB", "OBJECT_ID": "1999-025CFX", "EPOCH": "2025-12-02T05:33:26.479008", "MEAN_MOTION": 14.11635308, "ECCENTRICITY": 0.0135819, "INCLINATION": 98.4716, "RA_OF_ASC_NODE": 254.2606, "ARG_OF_PERICENTER": 143.9036, "MEAN_ANOMALY": 217.1401, "EPHEMERIS_TYPE": 0, "CLASSIFICATION_TYPE": "U", "NORAD_CAT_ID": 31772, "ELEMENT_SET_NO": 999, "REV_AT_EPOCH": 70735, "BSTAR": 0.0011634, "MEAN_MOTION_DOT": 2.268e-05, "MEAN_MOTION_DDOT": 0}, "tle": {"line1": "1 31772U 99025CFX 25336.23155647  .00002268  00000+0  11634-2 0  9991", "line2": "2 31772  98.4716 254.2606 0135819 143.9036 217.1401 14.11635308707355"}}, "geometry": {"type": "Point", "coordinates": [73.15131318541958, -43.905353948929786]}}, {"type": "Feature", "properties": {"norad_id": 31773, "name": "FENGYUN 1C DEB", "group": "fengyun-1c-debris", "lat": 9.656949325501303, "lon": -27.123859178674717, "alt_km": 681.3216277315696, "timestamp": "2025-12-09T18:55:17.516162+00:00", "meta": {"OBJECT_NAME": "FENGYUN 1C DEB", "OBJECT_ID": "1999-025CFY", "EPOCH": "2025-12-08T05:22:19.576416", "MEAN_MOTION": 14.72657344, "ECCENTRICITY": 0.00387845, "INCLINATION": 98.9512, "RA_OF_ASC_NODE": 332.6908, "ARG_OF_PERICENTER": 192.9231, "MEAN_ANOMALY": 167.0984, "EPHEMERIS_TYPE": 0, "CLASSIFICATION_TYPE": "U", "NORAD_CAT_ID": 31773, "ELEMENT_SET_NO": 999, "REV_AT_EPOCH": 65108, "BSTAR": 0.0024881377, "MEAN_MOTION_DOT": 0.00016017, "MEAN_MOTION_DDOT": 0}, "tle": {"line1": "1 31773U 99025CFY 25342.22383769  .00016017  00000+0  24881-2 0  9991", "line2": "2 31773  98.9512 332.6908 0038784 192.9231 167.0984 14.72657344651083"}}, "geometry": {"type": "Point", "coordinates": [-27.123859178674717, 9.656949325501303]}}, {"type": "Feature", "properties": {"norad_id": 31776, "name": "FENGYUN 1C DEB", "group": "fengyun-1c-debris", "lat": -58.874673791867885, "lon": 58.81387178243643, "alt_km": 808.7219710473246, "timestamp": "2025-12-09T18:55:17.516172+00:00", "meta": {"OBJECT_NAME": "FENGYUN 1C DEB", "OBJECT_ID": "1999-025CGB", "EPOCH": "2025-12-07T03:00:47.329920", "MEAN_MOTION": 14.18505117, "ECCENTRICITY": 0.00544535, "INCLINATION": 99.0754, "RA_OF_ASC_NODE": 40.7419, "ARG_OF_PERICENTER": 350.7961, "MEAN_ANOMALY": 38.8915, "EPHEMERIS_TYPE": 0, "CLASSIFICATION_TYPE": "U", "NORAD_CAT_ID": 31776, "ELEMENT_SET_NO": 999, "REV_AT_EPOCH": 94801, "BSTAR": 0.0021272928, "MEAN_MOTION_DOT": 4.419e-05, "MEAN_MOTION_DDOT": 0}, "tle": {"line1": "1 31776U 99025CGB 25341.12554780  .00004419  00000+0  21273-2 0  9990", "line2": "2 31776  99.0754  40.7419 0054453 350.7961  38.8915 14.18505117948016"}}, "geometry": {"type": "Point", "coordinates": [58.81387178243643, -58.874673791867885]}}, {"type": "Feature", "properties": {"norad_id": 31779, "name": "FENGYUN 1C DEB", "group": "fengyun-1c-debris", "lat": -2.0106750438307595, "lon": -96.17539252141485, "alt_km": 904.0905173004949, "timestamp": "2025-12-09T18:55:17.516181+00:00", "meta": {"OBJECT_NAME": "FENGYUN 1C DEB", "OBJECT_ID": "1999-025CGE", "EPOCH": "2025-12-09T12:16:05.171808", "MEAN_MOTION": 14.41586265, "ECCENTRICITY": 0.02131401, "INCLINATION": 99.298, "RA_OF_ASC_NODE": 263.1933, "ARG_OF_PERICENTER": 192.3913, "MEAN_ANOMALY": 167.1985, "EPHEMERIS_TYPE": 0, "CLASSIFICATION_TYPE": "U", "NORAD_CAT_ID": 31779, "ELEMENT_SET_NO": 999, "REV_AT_EPOCH": 96963, "BSTAR": 0.00045665466, "MEAN_MOTION_DOT": 1.887e-05, "MEAN_MOTION_DDOT": 0}, "tle": {"line1": "1 31779U 99025CGE 25343.51117097  .00001887  00000+0  45665-3 0  9992", "line2": "2 31779  99.2980 263.1933 0213140 192.3913 167.1985 14.41586265969634"}}, "geometry": {"type": "Point", "coordinates": [-96.17539252141485, -2.0106750438307595]}}, {"type": "Feature", "properties": {"norad_id": 31780, "name": "FENGYUN 1C DEB", "group": "fengyun-1c-debris", "lat": 20.311860537878275, "lon": 132.54399211429956, "alt_km": 582.3234084790893, "timestamp": "2025-12-09T18:55:17.516191+00:00", "meta": {"OBJECT_NAME": "FENGYUN 1C DEB", "OBJECT_ID": "1999-025CGF", "EPOCH": "2025-12-09T05:45:24.780960", "MEAN_MOTION": 14.6951869, "ECCENTRICITY": 0.0150948, "INCLINATION": 99.286, "RA_OF_ASC_NODE": 135.3927, "ARG_OF_PERICENTER": 63.9247, "MEAN_ANOMALY": 297.7403, "EPHEMERIS_TYPE": 0, "CLASSIFICATION_TYPE": "U", "NORAD_CAT_ID": 31780, "ELEMENT_SET_NO": 999, "REV_AT_EPOCH": 98446, "BSTAR": 0.00044259, "MEAN_MOTION_DOT": 3.056e-05, "MEAN_MOTION_DDOT": 0}, "tle": {"line1": "1 31780U 99025CGF 25343.23987015  .00003056  00000+0  44259-3 0  9996", "line2": "2 31780  99.2860 135.3927 0150948  63.9247 297.7403 14.69518690984465"}}, "geometry": {"type": "Point", "coordinates": [132.54399211429956, 20.311860537878275]}}, {"type": "Feature", "properties": {"norad_id": 31781, "name": "FENGYUN 1C DEB", "group": "fengyun-1c-debris", "lat": 32.51111685153866, "lon": 148.38150027786864, "alt_km": 897.9058139432864, "timestamp": "2025-12-09T18:55:17.516201+00:00", "meta": {"OBJECT_NAME": "FENGYUN 1C DEB", "OBJECT_ID": "1999-025CGG", "EPOCH": "2025-12-09T06:52:06.193920", "MEAN_MOTION": 14.12885604, "ECCENTRICITY": 0.0203697, "INCLINATION": 99.4979, "RA_OF_ASC_NODE": 153.9738, "ARG_OF_PERICENTER": 283.3787, "MEAN_ANOMALY": 74.4748, "EPHEMERIS_TYPE": 0, "CLASSIFICATION_TYPE": "U", "NORAD_CAT_ID": 31781, "ELEMENT_SET_NO": 999, "REV_AT_EPOCH": 68299, "BSTAR": 0.004746, "MEAN_MOTION_DOT": 0.0001072, "MEAN_MOTION_DDOT": 0}, "tle": {"line1": "1 31781U 99025CGG 25343.28618280  .00010720  00000+0  47460-2 0  9999", "line2": "2 31781  99.4979 153.9738 0203697 283.3787  74.4748 14.12885604682997"}}, "geometry": {"type": "Point", "coordinates": [148.38150027786864, 32.51111685153866]}}, {"type": "Feature", "properties": {"norad_id": 31782, "name": "FENGYUN 1C DEB", "group": "fengyun-1c-debris", "lat": -62.78573890274768, "lon": -52.87032664399161, "alt_km": 807.6598407167457, "timestamp": "2025-12-09T18:55:17.516224+00:00", "meta": {"OBJECT_NAME": "FENGYUN 1C DEB", "OBJECT_ID": "1999-025CGH", "EPOCH": "2025-12-08T16:46:19.717248", "MEAN_MOTION": 14.36221911, "ECCENTRICITY": 0.00796709, "INCLINATION": 98.9039, "RA_OF_ASC_NODE": 143.7533, "ARG_OF_PERICENTER": 8.9177, "MEAN_ANOMALY": 5.7329, "EPHEMERIS_TYPE": 0, "CLASSIFICATION_TYPE": "U", "NORAD_CAT_ID": 31782, "ELEMENT_SET_NO": 999, "REV_AT_EPOCH": 96633, "BSTAR": 0.0006706212, "MEAN_MOTION_DOT": 1.982e-05, "MEAN_MOTION_DDOT": 0}, "tle": {"line1": "1 31782U 99025CGH 25342.69883932  .00001982  00000+0  67062-3 0  9993", "line2": "2 31782  98.9039 143.7533 0079670   8.9177   5.7329 14.36221911966331"}}, "geometry": {"type": "Point", "coordinates": [-52.87032664399161, -62.78573890274768]}}, {"type": "Feature", "properties": {"norad_id": 31783, "name": "FENGYUN 1C DEB", "group": "fengyun-1c-debris", "lat": 72.56085522716256, "lon": -36.235486033455665, "alt_km": 783.8235752682995, "timestamp": "2025-12-09T18:55:17.516236+00:00", "meta": {"OBJECT_NAME": "FENGYUN 1C DEB", "OBJECT_ID": "1999-025CGJ", "EPOCH": "2025-12-09T12:27:49.249728", "MEAN_MOTION": 14.08819411, "ECCENTRICITY": 0.01044399, "INCLINATION": 98.6044, "RA_OF_ASC_NODE": 352.3234, "ARG_OF_PERICENTER": 59.0587, "MEAN_ANOMALY": 91.4793, "EPHEMERIS_TYPE": 0, "CLASSIFICATION_TYPE": "U", "NORAD_CAT_ID": 31783, "ELEMENT_SET_NO": 999, "REV_AT_EPOCH": 89175, "BSTAR": 0.00082096707, "MEAN_MOTION_DOT": 1.449e-05, "MEAN_MOTION_DDOT": 0}, "tle": {"line1": "1 31783U 99025CGJ 25343.51932002  .00001449  00000+0  82097-3 0  9992", "line2": "2 31783  98.6044 352.3234 0104439  59.0587  91.4793 14.08819411891752"}}, "geometry": {"type": "Point", "coordinates": [-36.235486033455665, 72.56085522716256]}}, {"type": "Feature", "properties": {"norad_id": 31788, "name": "FENGYUN 1C DEB", "group": "fengyun-1c-debris", "lat": 42.9551464014713, "lon": 114.05266967973267, "alt_km": 850.7586999133309, "timestamp": "2025-12-09T18:55:17.516249+00:00", "meta": {"OBJECT_NAME": "FENGYUN 1C DEB", "OBJECT_ID": "1999-025CGP", "EPOCH": "2025-12-07T06:34:14.280960", "MEAN_MOTION": 13.45050768, "ECCENTRICITY": 0.04634358, "INCLINATION": 102.5565, "RA_OF_ASC_NODE": 122.8838, "ARG_OF_PERICENTER": 98.8989, "MEAN_ANOMALY": 18.5526, "EPHEMERIS_TYPE": 0, "CLASSIFICATION_TYPE": "U", "NORAD_CAT_ID": 31788, "ELEMENT_SET_NO": 999, "REV_AT_EPOCH": 90531, "BSTAR": 0.0038627259, "MEAN_MOTION_DOT": 4.296e-05, "MEAN_MOTION_DDOT": 0}, "tle": {"line1": "1 31788U 99025CGP 25341.27377640  .00004296  00000+0  38627-2 0  9991", "line2": "2 31788 102.5565 122.8838 0463435  98.8989  18.5526 13.45050768905315"}}, "geometry": {"type": "Point", "coordinates": [114.05266967973267, 42.9551464014713]}}, {"type": "Feature", "properties": {"norad_id": 31805, "name": "FENGYUN 1C DEB", "group": "fengyun-1c-debris", "lat": 16.49106927999505, "lon": -34.296117492707175, "alt_km": 1163.6181109246245, "timestamp": "2025-12-09T18:55:17.516259+00:00", "meta": {"OBJECT_NAME": "FENGYUN 1C DEB", "OBJECT_ID": "1999-025CGT", "EPOCH": "2025-12-08T17:09:22.710816", "MEAN_MOTION": 14.02765312, "ECCENTRICITY": 0.04471048, "INCLINATION": 98.3654, "RA_OF_ASC_NODE": 327.2101, "ARG_OF_PERICENTER": 170.2976, "MEAN_ANOMALY": 190.7197, "EPHEMERIS_TYPE": 0, "CLASSIFICATION_TYPE": "U", "NORAD_CAT_ID": 31805, "ELEMENT_SET_NO": 999, "REV_AT_EPOCH": 62307, "BSTAR": 0.0016736158, "MEAN_MOTION_DOT": 6.276e-05, "MEAN_MOTION_DDOT": 0}, "tle": {"line1": "1 31805U 99025CGT 25342.71484619  .00006276  00000+0  16736-2 0  9993", "line2": "2 31805  98.3654 327.2101 0447104 170.2976 190.7197 14.02765312623075"}}, "geometry": {"type": "Point", "coordinates": [-34.296117492707175, 16.49106927999505]}}]}